STARLINK-35245          
1 65599U 25207H   25355.58335648 -.01611945  00000+0 -75162-1 0  9992
2 65599  97.6029  61.6773 0001972  85.2815 108.5753 15.23157406  5836
STARLINK-35229          
1 65600U 25207J   25355.58335648 -.02296754  00000+0 -11150+0 0  9998
2 65600  97.6029  61.5520 0002161  96.9534 147.6033 15.22507564  5890
STARLINK-35234          
1 65601U 25207K   25355.83335647 -.02416704  00000+0 -11703+0 0  9999
2 65601  97.6034  61.8398 0001839  92.0959 182.9602 15.22160640  5885
STARLINK-35255          
1 65602U 25207L   25355.58335648 -.02252221  00000+0 -10677+0 0  9994
2 65602  97.6029  61.6260 0002161  87.7655 348.7827 15.23228069  5881
STARLINK-35250          
1 65603U 25207M   25355.83335647 -.01729484  00000+0 -87402-1 0  9993
2 65603  97.6027  61.8893 0001730  75.7271 311.6745 15.20678498  5774
STARLINK-35251          
1 65604U 25207N   25355.58335648 -.02235358  00000+0 -10410+0 0  9993
2 65604  97.6031  61.6095 0001760  73.6537 325.4718 15.23797390  5945
STARLINK-35171          
1 65605U 25207P   25355.83335647 -.01730360  00000+0 -86898-1 0  9998
2 65605  97.6029  61.8709 0001735  82.6067 262.9680 15.20894534  5822
STARLINK-35195          
1 65606U 25207Q   25355.83335647 -.02518460  00000+0 -12164+0 0  9998
2 65606  97.6035  61.9477 0001924  63.7907  73.4837 15.22403145  5876
STARLINK-35156          
1 65607U 25207R   25355.83335647 -.02469785  00000+0 -12279+0 0  9991
2 65607  97.6012  61.9270 0001869  55.8263  29.1010 15.21348263  5877
STARLINK-35185          
1 65608U 25207S   25352.42999243 -.00007945  00000+0 -20189-3 0  9999
2 65608  97.6078  58.3969 0003523 114.8023 245.3588 15.39303463 16027
STARLINK-35053          
1 65609U 25207T   25355.83335647 -.01720961  00000+0 -86989-1 0  9999
2 65609  97.6026  61.8944 0001809  72.4484 326.4701 15.20652916  5877
STARLINK-35178          
1 65610U 25207U   25355.83335647 -.02414354  00000+0 -11566+0 0  9995
2 65610  97.6033  61.8577 0001620  91.9414 223.6676 15.22523493  5888
STARLINK-35186          
1 65611U 25207V   25355.83335647 -.01763834  00000+0 -11712+0 0  9998
2 65611  97.6033  61.8377 0001902  86.4257 179.0783 15.10597867  5824
STARLINK-35154          
1 65612U 25207W   25355.83335647 -.02476028  00000+0 -11881+0 0  9993
2 65612  97.6045  61.9291 0001869  74.0938  20.3765 15.22560057  5872
STARLINK-35162          
1 65613U 25207X   25355.83335647 -.01735825  00000+0 -84244-1 0  9991
2 65613  97.6028  61.8847 0001727  82.0618 294.6778 15.22065518  5879
STARLINK-35206          
1 65614U 25207Y   25355.83335647 -.02409640  00000+0 -11596+0 0  9994
2 65614  97.6035  61.8457 0001775  90.8287 196.7695 15.22361496  5770
STARLINK-35174          
1 65615U 25207Z   25355.83335647 -.01725298  00000+0 -85896-1 0  9990
2 65615  97.6031  61.7999 0002111  78.0664 104.6669 15.21175772  5878
