[{"OBJECT_NAME":"STARLINK-35245","OBJECT_ID":"2025-207H","EPOCH":"2025-12-21T14:00:01.999872","MEAN_MOTION":15.23157406,"ECCENTRICITY":0.00019722,"INCLINATION":97.6029,"RA_OF_ASC_NODE":61.6773,"ARG_OF_PERICENTER":85.2815,"MEAN_ANOMALY":108.5753,"EPHEMERIS_TYPE":0,"CLASSIFICATION_TYPE":"U","NORAD_CAT_ID":65599,"ELEMENT_SET_NO":999,"REV_AT_EPOCH":583,"BSTAR":-0.075162097,"MEAN_MOTION_DOT":-0.01611945,"MEAN_MOTION_DDOT":0},{"OBJECT_NAME":"STARLINK-35229","OBJECT_ID":"2025-207J","EPOCH":"2025-12-21T14:00:01.999872","MEAN_MOTION":15.22507564,"ECCENTRICITY":0.00021616,"INCLINATION":97.6029,"RA_OF_ASC_NODE":61.552,"ARG_OF_PERICENTER":96.9534,"MEAN_ANOMALY":147.6033,"EPHEMERIS_TYPE":0,"CLASSIFICATION_TYPE":"U","NORAD_CAT_ID":65600,"ELEMENT_SET_NO":999,"REV_AT_EPOCH":589,"BSTAR":-0.11150087,"MEAN_MOTION_DOT":-0.02296754,"MEAN_MOTION_DDOT":0},{"OBJECT_NAME":"STARLINK-35234","OBJECT_ID":"2025-207K","EPOCH":"2025-12-21T20:00:01.999008","MEAN_MOTION":15.2216064,"ECCENTRICITY":0.0001839,"INCLINATION":97.6034,"RA_OF_ASC_NODE":61.8398,"ARG_OF_PERICENTER":92.0959,"MEAN_ANOMALY":182.9602,"EPHEMERIS_TYPE":0,"CLASSIFICATION_TYPE":"U","NORAD_CAT_ID":65601,"ELEMENT_SET_NO":999,"REV_AT_EPOCH":588,"BSTAR":-0.11703,"MEAN_MOTION_DOT":-0.02416704,"MEAN_MOTION_DDOT":0},{"OBJECT_NAME":"STARLINK-35255","OBJECT_ID":"2025-207L","EPOCH":"2025-12-21T14:00:01.999872","MEAN_MOTION":15.23228069,"ECCENTRICITY":0.00021613,"INCLINATION":97.6029,"RA_OF_ASC_NODE":61.626,"ARG_OF_PERICENTER":87.7655,"MEAN_ANOMALY":348.7827,"EPHEMERIS_TYPE":0,"CLASSIFICATION_TYPE":"U","NORAD_CAT_ID":65602,"ELEMENT_SET_NO":999,"REV_AT_EPOCH":588,"BSTAR":-0.10676567,"MEAN_MOTION_DOT":-0.02252221,"MEAN_MOTION_DDOT":0},{"OBJECT_NAME":"STARLINK-35250","OBJECT_ID":"2025-207M","EPOCH":"2025-12-21T20:00:01.999008","MEAN_MOTION":15.20678498,"ECCENTRICITY":0.000173,"INCLINATION":97.6027,"RA_OF_ASC_NODE":61.8893,"ARG_OF_PERICENTER":75.7271,"MEAN_ANOMALY":311.6745,"EPHEMERIS_TYPE":0,"CLASSIFICATION_TYPE":"U","NORAD_CAT_ID":65603,"ELEMENT_SET_NO":999,"REV_AT_EPOCH":577,"BSTAR":-0.087402,"MEAN_MOTION_DOT":-0.01729484,"MEAN_MOTION_DDOT":0},{"OBJECT_NAME":"STARLINK-35251","OBJECT_ID":"2025-207N","EPOCH":"2025-12-21T14:00:01.999872","MEAN_MOTION":15.2379739,"ECCENTRICITY":0.00017609,"INCLINATION":97.6031,"RA_OF_ASC_NODE":61.6095,"ARG_OF_PERICENTER":73.6537,"MEAN_ANOMALY":325.4718,"EPHEMERIS_TYPE":0,"CLASSIFICATION_TYPE":"U","NORAD_CAT_ID":65604,"ELEMENT_SET_NO":999,"REV_AT_EPOCH":594,"BSTAR":-0.10409816,"MEAN_MOTION_DOT":-0.02235358,"MEAN_MOTION_DDOT":0},{"OBJECT_NAME":"STARLINK-35171","OBJECT_ID":"2025-207P","EPOCH":"2025-12-21T20:00:01.999008","MEAN_MOTION":15.20894534,"ECCENTRICITY":0.0001735,"INCLINATION":97.6029,"RA_OF_ASC_NODE":61.8709,"ARG_OF_PERICENTER":82.6067,"MEAN_ANOMALY":262.968,"EPHEMERIS_TYPE":0,"CLASSIFICATION_TYPE":"U","NORAD_CAT_ID":65605,"ELEMENT_SET_NO":999,"REV_AT_EPOCH":582,"BSTAR":-0.086898,"MEAN_MOTION_DOT":-0.0173036,"MEAN_MOTION_DDOT":0},{"OBJECT_NAME":"STARLINK-35195","OBJECT_ID":"2025-207Q","EPOCH":"2025-12-21T20:00:01.999008","MEAN_MOTION":15.22403145,"ECCENTRICITY":0.0001924,"INCLINATION":97.6035,"RA_OF_ASC_NODE":61.9477,"ARG_OF_PERICENTER":63.7907,"MEAN_ANOMALY":73.4837,"EPHEMERIS_TYPE":0,"CLASSIFICATION_TYPE":"U","NORAD_CAT_ID":65606,"ELEMENT_SET_NO":999,"REV_AT_EPOCH":587,"BSTAR":-0.12164,"MEAN_MOTION_DOT":-0.0251846,"MEAN_MOTION_DDOT":0},{"OBJECT_NAME":"STARLINK-35156","OBJECT_ID":"2025-207R","EPOCH":"2025-12-21T20:00:01.999008","MEAN_MOTION":15.21348263,"ECCENTRICITY":0.0001869,"INCLINATION":97.6012,"RA_OF_ASC_NODE":61.927,"ARG_OF_PERICENTER":55.8263,"MEAN_ANOMALY":29.101,"EPHEMERIS_TYPE":0,"CLASSIFICATION_TYPE":"U","NORAD_CAT_ID":65607,"ELEMENT_SET_NO":999,"REV_AT_EPOCH":587,"BSTAR":-0.12279,"MEAN_MOTION_DOT":-0.02469785,"MEAN_MOTION_DDOT":0},{"OBJECT_NAME":"STARLINK-35185","OBJECT_ID":"2025-207S","EPOCH":"2025-12-18T10:19:11.345952","MEAN_MOTION":15.39303463,"ECCENTRICITY":0.00035234,"INCLINATION":97.6078,"RA_OF_ASC_NODE":58.3969,"ARG_OF_PERICENTER":114.8023,"MEAN_ANOMALY":245.3588,"EPHEMERIS_TYPE":0,"CLASSIFICATION_TYPE":"U","NORAD_CAT_ID":65608,"ELEMENT_SET_NO":999,"REV_AT_EPOCH":1602,"BSTAR":-0.00020189245,"MEAN_MOTION_DOT":-7.945e-5,"MEAN_MOTION_DDOT":0},{"OBJECT_NAME":"STARLINK-35053","OBJECT_ID":"2025-207T","EPOCH":"2025-12-21T20:00:01.999008","MEAN_MOTION":15.20652916,"ECCENTRICITY":0.0001809,"INCLINATION":97.6026,"RA_OF_ASC_NODE":61.8944,"ARG_OF_PERICENTER":72.4484,"MEAN_ANOMALY":326.4701,"EPHEMERIS_TYPE":0,"CLASSIFICATION_TYPE":"U","NORAD_CAT_ID":65609,"ELEMENT_SET_NO":999,"REV_AT_EPOCH":587,"BSTAR":-0.086989,"MEAN_MOTION_DOT":-0.01720961,"MEAN_MOTION_DDOT":0},{"OBJECT_NAME":"STARLINK-35178","OBJECT_ID":"2025-207U","EPOCH":"2025-12-21T20:00:01.999008","MEAN_MOTION":15.22523493,"ECCENTRICITY":0.000162,"INCLINATION":97.6033,"RA_OF_ASC_NODE":61.8577,"ARG_OF_PERICENTER":91.9414,"MEAN_ANOMALY":223.6676,"EPHEMERIS_TYPE":0,"CLASSIFICATION_TYPE":"U","NORAD_CAT_ID":65610,"ELEMENT_SET_NO":999,"REV_AT_EPOCH":588,"BSTAR":-0.11566,"MEAN_MOTION_DOT":-0.02414354,"MEAN_MOTION_DDOT":0},{"OBJECT_NAME":"STARLINK-35186","OBJECT_ID":"2025-207V","EPOCH":"2025-12-21T20:00:01.999008","MEAN_MOTION":15.10597867,"ECCENTRICITY":0.0001902,"INCLINATION":97.6033,"RA_OF_ASC_NODE":61.8377,"ARG_OF_PERICENTER":86.4257,"MEAN_ANOMALY":179.0783,"EPHEMERIS_TYPE":0,"CLASSIFICATION_TYPE":"U","NORAD_CAT_ID":65611,"ELEMENT_SET_NO":999,"REV_AT_EPOCH":582,"BSTAR":-0.11712,"MEAN_MOTION_DOT":-0.01763834,"MEAN_MOTION_DDOT":0},{"OBJECT_NAME":"STARLINK-35154","OBJECT_ID":"2025-207W","EPOCH":"2025-12-21T20:00:01.999008","MEAN_MOTION":15.22560057,"ECCENTRICITY":0.0001869,"INCLINATION":97.6045,"RA_OF_ASC_NODE":61.9291,"ARG_OF_PERICENTER":74.0938,"MEAN_ANOMALY":20.3765,"EPHEMERIS_TYPE":0,"CLASSIFICATION_TYPE":"U","NORAD_CAT_ID":65612,"ELEMENT_SET_NO":999,"REV_AT_EPOCH":587,"BSTAR":-0.11881,"MEAN_MOTION_DOT":-0.02476028,"MEAN_MOTION_DDOT":0},{"OBJECT_NAME":"STARLINK-35162","OBJECT_ID":"2025-207X","EPOCH":"2025-12-21T20:00:01.999008","MEAN_MOTION":15.22065518,"ECCENTRICITY":0.0001727,"INCLINATION":97.6028,"RA_OF_ASC_NODE":61.8847,"ARG_OF_PERICENTER":82.0618,"MEAN_ANOMALY":294.6778,"EPHEMERIS_TYPE":0,"CLASSIFICATION_TYPE":"U","NORAD_CAT_ID":65613,"ELEMENT_SET_NO":999,"REV_AT_EPOCH":587,"BSTAR":-0.084244,"MEAN_MOTION_DOT":-0.01735825,"MEAN_MOTION_DDOT":0},{"OBJECT_NAME":"STARLINK-35206","OBJECT_ID":"2025-207Y","EPOCH":"2025-12-21T20:00:01.999008","MEAN_MOTION":15.22361496,"ECCENTRICITY":0.0001775,"INCLINATION":97.6035,"RA_OF_ASC_NODE":61.8457,"ARG_OF_PERICENTER":90.8287,"MEAN_ANOMALY":196.7695,"EPHEMERIS_TYPE":0,"CLASSIFICATION_TYPE":"U","NORAD_CAT_ID":65614,"ELEMENT_SET_NO":999,"REV_AT_EPOCH":577,"BSTAR":-0.11596,"MEAN_MOTION_DOT":-0.0240964,"MEAN_MOTION_DDOT":0},{"OBJECT_NAME":"STARLINK-35174","OBJECT_ID":"2025-207Z","EPOCH":"2025-12-21T20:00:01.999008","MEAN_MOTION":15.21175772,"ECCENTRICITY":0.0002111,"INCLINATION":97.6031,"RA_OF_ASC_NODE":61.7999,"ARG_OF_PERICENTER":78.0664,"MEAN_ANOMALY":104.6669,"EPHEMERIS_TYPE":0,"CLASSIFICATION_TYPE":"U","NORAD_CAT_ID":65615,"ELEMENT_SET_NO":999,"REV_AT_EPOCH":587,"BSTAR":-0.085896,"MEAN_MOTION_DOT":-0.01725298,"MEAN_MOTION_DDOT":0}]
